NORAD_CAT_ID,OBJECT_NAME,OBJECT_TYPE,EPOCH,MEAN_MOTION,ECCENTRICITY,INCLINATION,RA_OF_ASC_NODE,ARG_OF_PERICENTER,MEAN_ANOMALY,BSTAR,MEAN_MOTION_DOT,MEAN_MOTION_DDOT,TLE_LINE0,TLE_LINE1,TLE_LINE2,SEMIMAJOR_AXIS,PERIOD,APOGEE,PERIGEE,DECAYED
55404.0,STARLINK-5607,PAYLOAD,2023-12-25 21:43:34,14.98328334,0.0002306,70.0006,293.7208,256.5535,103.5368,-5.4533e-05,-7.43e-06,0.0,0 STARLINK-5607,1 55404U 23014P   23359.90526076 -.00000743  00000-0 -54533-4 0  9995,2 55404  70.0006 293.7208 0002306 256.5535 103.5368 14.98328334 51508,6950.198,96.107,573.666,570.46,0.0
55404.0,STARLINK-5607,PAYLOAD,2023-12-26 02:31:58,14.98326565,0.0002375,70.0005,293.2156,258.8488,101.2404,-6.7228e-05,-8.95e-06,0.0,0 STARLINK-5607,1 55404U 23014P   23360.10554357 -.00000895  00000-0 -67228-4 0  9995,2 55404  70.0005 293.2156 0002375 258.8488 101.2404 14.98326565 50590,6950.204,96.107,573.719,570.418,0.0
55404.0,STARLINK-5607,PAYLOAD,2023-12-26 05:44:15,14.98326652,0.0002272,70.0002,292.8769,261.2143,98.8759,-5.7543e-05,-7.79e-06,0.0,0 STARLINK-5607,1 55404U 23014P   23360.23906423 -.00000779  00000-0 -57543-4 0  9994,2 55404  70.0002 292.8769 0002272 261.2143  98.8759 14.98326652 51552,6950.203,96.107,573.647,570.489,0.0
55404.0,STARLINK-5607,PAYLOAD,2023-12-26 21:45:35,14.98329377,0.0002798,69.9992,291.1936,266.2545,93.8294,-3.1336e-05,-4.67e-06,0.0,0 STARLINK-5607,1 55404U 23014P   23360.90666119 -.00000467  00000-0 -31336-4 0  9999,2 55404  69.9992 291.1936 0002798 266.2545  93.8294 14.98329377 51656,6950.195,96.107,574.004,570.115,0.0
55404.0,STARLINK-5607,PAYLOAD,2023-12-27 02:33:59,14.98329761,0.000272,69.9993,290.6887,267.7266,92.3582,6.7306e-06,-1.3e-07,0.0,0 STARLINK-5607,1 55404U 23014P   23361.10694009 -.00000013  00000-0  67306-5 0  9994,2 55404  69.9993 290.6887 0002720 267.7266  92.3582 14.98329761 50747,6950.194,96.107,573.949,570.168,0.0
55404.0,STARLINK-5607,PAYLOAD,2023-12-27 05:46:15,14.9833294,0.0002675,69.9994,290.3525,266.7485,93.3368,4.268e-05,4.16e-06,0.0,0 STARLINK-5607,1 55404U 23014P   23361.24045704  .00000416  00000-0  42680-4 0  9994,2 55404  69.9994 290.3525 0002675 266.7485  93.3368 14.98332940 51708,6950.184,96.107,573.908,570.19,0.0
55404.0,STARLINK-5607,PAYLOAD,2023-12-27 21:47:36,14.98324956,0.0002441,69.9997,288.6687,264.9209,95.1671,7.1101e-05,7.55e-06,0.0,0 STARLINK-5607,1 55404U 23014P   23361.90806075  .00000755  00000-0  71101-4 0  9999,2 55404  69.9997 288.6687 0002441 264.9209  95.1671 14.98324956 51801,6950.208,96.107,573.77,570.377,0.0
55404.0,STARLINK-5607,PAYLOAD,2023-12-28 04:12:08,14.98328587,0.0002575,69.9998,287.9951,266.0237,94.0628,1.6795e-05,1.07e-06,0.0,0 STARLINK-5607,1 55404U 23014P   23362.17510019  .00000107  00000-0  16795-4 0  9998,2 55404  69.9998 287.9951 0002575 266.0237  94.0628 14.98328587 50904,6950.197,96.107,573.852,570.273,0.0
55404.0,STARLINK-5607,PAYLOAD,2023-12-28 05:48:16,14.98328495,0.0002634,69.9992,287.8258,262.1294,97.9566,9.3231e-05,1.02e-05,0.0,0 STARLINK-5607,1 55404U 23014P   23362.24185800  .00001020  00000-0  93231-4 0  9997,2 55404  69.9992 287.8258 0002634 262.1294  97.9566 14.98328495 51859,6950.198,96.107,573.893,570.232,0.0
55404.0,STARLINK-5607,PAYLOAD,2023-12-28 20:13:29,14.9832576,0.0002362,70.0001,286.3103,254.2449,105.8449,4.1517e-05,4.02e-06,0.0,0 STARLINK-5607,1 55404U 23014P   23362.84270088  .00000402  00000-0  41517-4 0  9999,2 55404  70.0001 286.3103 0002362 254.2449 105.8449 14.98325760 51949,6950.206,96.107,573.713,570.429,0.0
55404.0,STARLINK-5607,PAYLOAD,2023-12-29 02:38:02,14.9832234,0.0002235,70.0013,285.6417,229.3305,130.766,-2.8295e-05,-4.3e-06,0.0,0 STARLINK-5607,1 55404U 23014P   23363.10974539 -.00000430  00000-0 -28295-4 0  9992,2 55404  70.0013 285.6417 0002235 229.3305 130.7660 14.98322340 51049,6950.217,96.107,573.635,570.528,0.0
55404.0,STARLINK-5607,PAYLOAD,2023-12-29 04:14:09,14.98322124,0.0002705,70.0002,285.472,266.6493,93.4357,7.7868e-05,8.36e-06,0.0,0 STARLINK-5607,1 55404U 23014P   23363.17650340  .00000836  00000-0  77868-4 0  9998,2 55404  70.0002 285.4720 0002705 266.6493  93.4357 14.98322124 51998,6950.217,96.108,573.962,570.202,0.0
55404.0,STARLINK-5607,PAYLOAD,2023-12-29 20:15:29,14.98330767,0.0002779,69.9996,283.787,263.5248,96.5595,4.1008e-05,3.96e-06,0.0,0 STARLINK-5607,1 55404U 23014P   23363.84409674  .00000396  00000-0  41008-4 0  9992,2 55404  69.9996 283.7870 0002779 263.5248  96.5595 14.98330767 51157,6950.191,96.107,573.987,570.124,0.0
55404.0,STARLINK-5607,PAYLOAD,2023-12-29 21:51:37,14.98331163,0.0002732,69.9997,283.6187,262.6372,97.4477,4.595e-05,4.55e-06,0.0,0 STARLINK-5607,1 55404U 23014P   23363.91085628  .00000455  00000-0  45950-4 0  9995,2 55404  69.9997 283.6187 0002732 262.6372  97.4477 14.98331163 52101,6950.189,96.107,573.953,570.156,0.0
55404.0,STARLINK-5607,PAYLOAD,2023-12-30 04:16:09,14.98337267,0.0002952,69.9991,282.9449,275.907,84.1753,0.00010352,1.143e-05,0.0,0 STARLINK-5607,1 55404U 23014P   23364.17789103  .00001143  00000-0  10352-3 0  9995,2 55404  69.9991 282.9449 0002952 275.9070  84.1753 14.98337267 51205,6950.17,96.107,574.087,569.984,0.0
55404.0,STARLINK-5607,PAYLOAD,2023-12-30 20:17:31,14.98317386,0.0002576,70.002,281.268,258.583,101.504,1.808e-05,1.23e-06,0.0,0 STARLINK-5607,1 55404U 23014P   23364.84550542  .00000123  00000-0  18080-4 0  9996,2 55404  70.0020 281.2680 0002576 258.5830 101.5040 14.98317386 51307,6950.232,96.108,573.887,570.307,0.0
55404.0,STARLINK-5607,PAYLOAD,2023-12-30 21:53:39,14.98316774,0.0002654,70.0014,281.0992,262.1873,97.8985,2.5712e-05,2.14e-06,0.0,0 STARLINK-5607,1 55404U 23014P   23364.91226596  .00000214  00000-0  25712-4 0  9994,2 55404  70.0014 281.0992 0002654 262.1873  97.8985 14.98316774 52259,6950.234,96.108,573.943,570.254,0.0
55404.0,STARLINK-5607,PAYLOAD,2023-12-31 04:18:11,14.98322433,0.0002658,69.9991,280.4203,267.5919,92.4935,4.4973e-05,4.44e-06,0.0,0 STARLINK-5607,1 55404U 23014P   23365.17930261  .00000444  00000-0  44973-4 0  9999,2 55404  69.9991 280.4203 0002658 267.5919  92.4935 14.98322433 51357,6950.216,96.107,573.929,570.234,0.0
55404.0,STARLINK-5607,PAYLOAD,2023-12-31 20:19:32,14.98333096,0.0003087,69.9985,278.7364,268.6257,91.4549,-6.0576e-05,-8.16e-06,0.0,0 STARLINK-5607,1 55404U 23014P   23365.84689828 -.00000816  00000-0 -60576-4 0  9995,2 55404  69.9985 278.7364 0003087 268.6257  91.4549 14.98333096 51450,6950.183,96.107,574.194,569.903,0.0
55404.0,STARLINK-5607,PAYLOAD,2023-12-31 21:55:39,14.98333683,0.000293,69.9989,278.5689,268.0509,92.0315,-2.7186e-05,-4.17e-06,0.0,0 STARLINK-5607,1 55404U 23014P   23365.91365735 -.00000417  00000-0 -27186-4 0  9998,2 55404  69.9989 278.5689 0002930 268.0509  92.0315 14.98333683 52408,6950.182,96.107,574.083,570.01,0.0
55404.0,STARLINK-5607,PAYLOAD,2024-01-01 04:20:11,14.98337876,0.0003013,69.9986,277.8952,270.9018,89.1796,3.3746e-06,-5.3e-07,0.0,0 STARLINK-5607,1 55404U 23014P   24001.18069319 -.00000053  00000-0  33746-5 0  9999,2 55404  69.9986 277.8952 0003013 270.9018  89.1796 14.98337876 52442,6950.169,96.106,574.128,569.939,0.0
55404.0,STARLINK-5607,PAYLOAD,2024-01-01 20:21:32,14.98326275,0.0002923,69.9988,276.2109,269.9112,90.1712,0.0001298,1.456e-05,0.0,0 STARLINK-5607,1 55404U 23014P   24001.84829535  .00001456  00000-0  12980-3 0  9998,2 55404  69.9988 276.2109 0002923 269.9112  90.1712 14.98326275 51601,6950.204,96.107,574.101,570.038,0.0
55404.0,STARLINK-5607,PAYLOAD,2024-01-01 21:57:40,14.9832949,0.0002917,69.9988,276.0431,271.4105,88.672,8.4013e-05,9.1e-06,0.0,0 STARLINK-5607,1 55404U 23014P   24001.91505502  .00000910  00000-0  84013-4 0  9992,2 55404  69.9988 276.0431 0002917 271.4105  88.6720 14.98329490 52558,6950.194,96.107,574.087,570.032,0.0
55404.0,STARLINK-5607,PAYLOAD,2024-01-02 04:22:12,14.98332178,0.0002809,69.999,275.37,270.5319,89.5518,0.00020125,2.309e-05,0.0,0 STARLINK-5607,1 55404U 23014P   24002.18208999  .00002309  00000-0  20125-3 0  9999,2 55404  69.9990 275.3700 0002809 270.5319  89.5518 14.98332178 51651,6950.186,96.107,574.003,570.099,0.0
55404.0,STARLINK-5607,PAYLOAD,2024-01-02 21:59:41,14.98333085,0.0002484,69.9998,273.5204,260.2232,99.8647,-5.0459e-06,-1.53e-06,0.0,0 STARLINK-5607,1 55404U 23014P   24002.91645265 -.00000153  00000-0 -50459-5 0  9993,2 55404  69.9998 273.5204 0002484 260.2232  99.8647 14.98333085 52709,6950.183,96.107,573.775,570.322,0.0
55404.0,STARLINK-5607,PAYLOAD,2024-01-03 02:48:05,14.98331263,0.0002501,69.9998,273.0152,256.5463,103.5417,-1.4562e-05,-2.67e-06,0.0,0 STARLINK-5607,1 55404U 23014P   24003.11673354 -.00000267  00000-0 -14562-4 0  9996,2 55404  69.9998 273.0152 0002501 256.5463 103.5417 14.98331263 51792,6950.189,96.107,573.792,570.316,0.0
55404.0,STARLINK-5607,PAYLOAD,2024-01-03 04:24:13,14.98331424,0.0002498,69.9997,272.847,264.6806,95.4068,-2.3305e-05,-3.71e-06,0.0,0 STARLINK-5607,1 55404U 23014P   24003.18349384 -.00000371  00000-0 -23305-4 0  9997,2 55404  69.9997 272.8470 0002498 264.6806  95.4068 14.98331424 52743,6950.188,96.107,573.79,570.317,0.0
55404.0,STARLINK-5607,PAYLOAD,2024-01-03 22:01:42,14.98331739,0.0002505,69.9998,270.9955,251.6749,108.4138,-5.3104e-05,-7.27e-06,0.0,0 STARLINK-5607,1 55404U 23014P   24003.91785251 -.00000727  00000-0 -53104-4 0  9990,2 55404  69.9998 270.9955 0002505 251.6749 108.4138 14.98331739 52856,6950.188,96.107,573.794,570.311,0.0
55404.0,STARLINK-5607,PAYLOAD,2024-01-04 02:50:06,14.98328202,0.0002532,69.9998,270.4904,252.4408,107.6475,-5.5282e-05,-7.52e-06,0.0,0 STARLINK-5607,1 55404U 23014P   24004.11813478 -.00000752  00000-0 -55282-4 0  9993,2 55404  69.9998 270.4904 0002532 252.4408 107.6475 14.98328202 51941,6950.198,96.107,573.823,570.304,0.0
55404.0,STARLINK-5607,PAYLOAD,2024-01-04 04:26:15,14.98319321,0.0002525,69.9998,270.3221,249.934,110.1547,9.4082e-05,1.029e-05,0.0,0 STARLINK-5607,1 55404U 23014P   24004.18489700  .00001029  00000-0  94082-4 0  9994,2 55404  69.9998 270.3221 0002525 249.9340 110.1547 14.98319321 52896,6950.226,96.108,573.846,570.336,0.0
